ONEWEB-0709             
1 55172U 23004AJ  25072.14294493 -.00000409  00000+0 -11908-2 0  9996
2 55172  87.8821 113.0108 0001909  68.0430 292.0901 13.11419044105456
ONEWEB-0710             
1 55173U 23004AK  25072.11936988  .00000049  00000+0  93916-4 0  9995
2 55173  87.9006  97.7338 0001846  96.1275 264.0067 13.17648775106864
ONEWEB-0711             
1 55174U 23004AL  25071.80894429  .00000091  00000+0  21980-3 0  9992
2 55174  87.8820 113.0454 0001467 120.2266 239.9007 13.11413224105369
ONEWEB-0713             
1 55175U 23004AM  25072.13277389 -.00000672  00000+0 -19327-2 0  9998
2 55175  87.8819 112.9883 0001737 105.0064 255.1257 13.11415132105399
ONEWEB-0715             
1 55176U 23004AN  25072.12768522 -.00000343  00000+0 -10034-2 0  9993
2 55176  87.8820 112.9901 0001685  87.9753 272.1568 13.11417034105441
ONEWEB-0716             
1 55177U 23004AP  25071.96074949  .00000045  00000+0  83594-4 0  9998
2 55177  87.9008  97.7630 0002192  95.1953 264.9429 13.17647842106845
ONEWEB-0717             
1 55178U 23004AQ  25072.09573619  .00000043  00000+0  76584-4 0  9991
2 55178  87.9009  97.6962 0001233 106.8056 253.3211 13.17649252106919
ONEWEB-0719             
1 55179U 23004AR  25072.10587043  .00000240  00000+0  58571-3 0  9994
2 55179  87.9005  97.6787 0002149  98.4372 261.7003 13.17649156106864
ONEWEB-0530             
1 55796U 23029A   25072.18612015  .00000524  00000+0  12570-2 0  9995
2 55796  87.9331   6.2249 0001163  91.3257 268.8009 13.20782895101006
ONEWEB-0534             
1 55797U 23029B   25071.87048546 -.00000010  00000+0 -57095-4 0  9998
2 55797  87.9334   6.2950 0001957  81.2020 278.9335 13.20773662100258
ONEWEB-0556             
1 55798U 23029C   25071.87680742 -.00000069  00000+0 -20047-3 0  9999
2 55798  87.9335   6.2862 0002165 101.7753 258.3623 13.20771555100256
ONEWEB-0562             
1 55799U 23029D   25071.86418209  .00000019  00000+0  14646-4 0  9998
2 55799  87.9334   6.2811 0001697 111.9323 248.1990 13.20771802100254
ONEWEB-0563             
1 55800U 23029E   25072.23665287  .00000158  00000+0  35569-3 0  9993
2 55800  87.9334   6.2219 0002232  80.4042 279.7343 13.20772396100973
ONEWEB-0564             
1 55801U 23029F   25072.23033963  .00000130  00000+0  28892-3 0  9995
2 55801  87.9336   6.2112 0001685  90.9528 269.1799 13.20772431101018
ONEWEB-0638             
1 55802U 23029G   25071.89094971 -.00000166  00000+0 -48120-3 0  9990
2 55802  87.9072  21.4845 0002109  96.0152 264.1218 13.14503719 98795
ONEWEB-0639             
1 55803U 23029H   25071.91419157  .00000001  00000+0 -28866-4 0  9994
2 55803  87.9210  36.6592 0003054  73.2954 286.8514 13.19725097 98064
ONEWEB-0640             
1 55804U 23029J   25071.90046178 -.00000062  00000+0 -20249-3 0  9997
2 55804  87.9065  21.4727 0002533  92.9075 267.2345 13.14500883 98815
ONEWEB-0641             
1 55805U 23029K   25071.90945129  .00000050  00000+0  92683-4 0  9999
2 55805  87.9209  36.6350 0002117  77.8436 282.2934 13.19725192 98073
ONEWEB-0642             
1 55806U 23029L   25071.90471480  .00000015  00000+0  58894-5 0  9992
2 55806  87.9212  36.6696 0002712  67.3473 292.7947 13.19725092 98751
ONEWEB-0643             
1 55807U 23029M   25071.87033646 -.00000075  00000+0 -23598-3 0  9996
2 55807  87.9073  21.4593 0002324  58.8170 301.3187 13.14502855 98784
ONEWEB-0644             
1 55808U 23029N   25071.89997681 -.00000006  00000+0 -48464-4 0  9991
2 55808  87.9215  36.6721 0002313  71.4498 288.6885 13.19724001 98063
ONEWEB-0645             
1 55809U 23029P   25071.89600523  .00000054  00000+0  10219-3 0  9995
2 55809  87.9212  36.6705 0002203  84.8072 275.3312 13.19723531 98062
ONEWEB-0646             
1 55810U 23029Q   25071.92602675  .00000066  00000+0  13266-3 0  9999
2 55810  87.9210  36.6594 0002096  75.2808 284.8557 13.19723377 98052
ONEWEB-0648             
1 55811U 23029R   25072.21921575  .00000178  00000+0  44672-3 0  9995
2 55811  87.9070  21.3646 0002874  74.8397 285.3051 13.14501851 99544
ONEWEB-0649             
1 55812U 23029S   25072.19218337 -.00000044  00000+0 -14324-3 0  9993
2 55812  87.9206  36.5976 0002417  78.1904 281.9500 13.19725390 98815
ONEWEB-0650             
1 55813U 23029T   25071.95999582  .00000008  00000+0 -11280-4 0  9993
2 55813  87.9209  36.6512 0002091  77.8124 282.3242 13.19725377 98064
ONEWEB-0652             
1 55814U 23029U   25071.89569506 -.00000100  00000+0 -30531-3 0  9999
2 55814  87.9070  21.4392 0001752  82.1814 277.9515 13.14504330 98766
ONEWEB-0653             
1 55815U 23029V   25071.87984714 -.00000284  00000+0 -80069-3 0  9994
2 55815  87.9074  21.4288 0001886  86.9882 273.1464 13.14501339 98790
ONEWEB-0654             
1 55816U 23029W   25072.10343957 -.00000088  00000+0 -27205-3 0  9995
2 55816  87.9073  21.3877 0001594  91.9277 268.2035 13.14502113 99536
ONEWEB-0656             
1 55817U 23029X   25072.22402191  .00000125  00000+0  27587-3 0  9998
2 55817  87.9335   6.1535 0001274  86.0906 274.0373 13.20773041100988
ONEWEB-0657             
1 55818U 23029Y   25071.87944058  .00000044  00000+0  77975-4 0  9999
2 55818  87.9209  36.6720 0001279  64.3481 295.7784 13.19724960 98060
ONEWEB-0658             
1 55819U 23029Z   25071.95051985 -.00000013  00000+0 -65394-4 0  9997
2 55819  87.9209  36.5919 0002289  71.9969 288.1413 13.19724584 98086
ONEWEB-0660             
1 55820U 23029AA  25071.92901118  .00000186  00000+0  46746-3 0  9996
2 55820  87.9071  21.3946 0002281  83.2312 276.9077 13.14503449 98808
ONEWEB-0661             
1 55821U 23029AB  25071.88776005 -.00000549  00000+0 -15162-2 0  9999
2 55821  87.9071  21.4723 0002258  86.5446 273.5942 13.14503128 98786
ONEWEB-0662             
1 55822U 23029AC  25071.92264603  .00000297  00000+0  76761-3 0  9992
2 55822  87.9072  21.4724 0002298  82.3781 277.7609 13.14505404 98830
ONEWEB-0663             
1 55823U 23029AD  25072.20965597  .00000076  00000+0  15575-3 0  9996
2 55823  87.9334   6.2136 0002257  79.4869 280.6519 13.20826937100975
ONEWEB-0664             
1 55824U 23029AE  25072.21140095  .00000146  00000+0  32789-3 0  9990
2 55824  87.9336   6.2318 0001988  94.0392 266.0969 13.20771666100980
ONEWEB-0665             
1 55825U 23029AF  25071.88460884 -.00000229  00000+0 -65208-3 0  9990
2 55825  87.9072  21.4476 0002197  80.0915 280.0462 13.14503263 98801
ONEWEB-0666             
1 55826U 23029AG  25071.82630204  .00000019  00000+0  14764-4 0  9997
2 55826  87.9335   6.2972 0001461  81.8073 278.3226 13.20771402100253
ONEWEB-0667             
1 55827U 23029AH  25071.81998967  .00000042  00000+0  71112-4 0  9996
2 55827  87.9333   6.2310 0002076  83.4592 276.6777 13.20771301100244
ONEWEB-0669             
1 55828U 23029AJ  25071.89101212 -.00000049  00000+0 -15248-3 0  9990
2 55828  87.9334   6.2531 0001415 101.7591 258.3701 13.20771720100250
ONEWEB-0670             
1 55829U 23029AK  25071.86240788  .00000063  00000+0  13667-3 0  9997
2 55829  87.9075  21.4667 0002187  90.5751 269.5629 13.14501453 98821
ONEWEB-0671             
1 55830U 23029AL  25071.94577964 -.00000007  00000+0 -49469-4 0  9997
2 55830  87.9207  36.6533 0002187  88.4964 271.6419 13.19724961 98065
ONEWEB-0672             
1 55831U 23029AM  25071.88627467 -.00000036  00000+0 -11994-3 0  9998
2 55831  87.9334   6.2392 0001511  77.6449 282.4854 13.20771261100256
ONEWEB-0673             
1 55832U 23029AN  25071.92208920  .00000079  00000+0  16498-3 0  9992
2 55832  87.9208  36.6224 0002132  76.9322 283.2048 13.19725399 98068
ONEWEB-0674             
1 55833U 23029AP  25071.90681604  .00000070  00000+0  15551-3 0  9995
2 55833  87.9068  21.4497 0002252  93.6066 266.5322 13.14502312 99491
ONEWEB-0675             
1 55834U 23029AQ  25071.93788254 -.00000009  00000+0 -55302-4 0  9991
2 55834  87.9212  36.6635 0001771  73.0960 287.0367 13.19724411 98087
ONEWEB-0720             
1 55835U 23029AR  25071.92998591  .00000111  00000+0  24442-3 0  9990
2 55835  87.9211  36.6624 0002366  79.0444 281.0954 13.19726011 98005
ONEWEB-0537             
1 56046U 23043A   25072.19703245  .00000087  00000+0  19276-3 0  9992
2 56046  87.9091 320.6487 0001501  74.9501 285.1796 13.16596256 99213
ONEWEB-0538             
1 56047U 23043B   25072.19070488  .00000048  00000+0  91079-4 0  9998
2 56047  87.9091 320.6717 0001772  69.5545 290.5776 13.16595339 99228
ONEWEB-0546             
1 56048U 23043C   25071.95003802 -.00000078  00000+0 -23868-3 0  9993
2 56048  87.9098 320.6882 0000946  77.7214 282.4023 13.16596095 98274
ONEWEB-0547             
1 56049U 23043D   25071.95556472  .00000184  00000+0  41312-3 0  9990
2 56049  87.9349 335.9359 0001782  72.0766 288.0562 13.21821909 97293
ONEWEB-0548             
1 56050U 23043E   25072.20335902  .00000155  00000+0  37163-3 0  9991
2 56050  87.9092 320.6787 0001955  95.4715 264.6639 13.16596724 99218
ONEWEB-0549             
1 56051U 23043F   25071.71978622 -.00000010  00000+0 -55383-4 0  9996
2 56051  87.9344 335.9830 0002041  69.5093 290.6260 13.21825912 97267
ONEWEB-0550             
1 56052U 23043G   25072.23704646  .00000105  00000+0  22250-3 0  9997
2 56052  87.9338 335.8785 0001896  83.2206 276.9143 13.21825817 98245
ONEWEB-0551             
1 56053U 23043H   25071.79148774 -.00000101  00000+0 -30227-3 0  9993
2 56053  87.9142 351.1469 0002050  74.2090 285.9266 13.15549472 95733
ONEWEB-0552             
1 56054U 23043J   25071.77655827  .00000046  00000+0  80688-4 0  9997
2 56054  87.9337 335.9790 0002117  80.1947 279.9426 13.21825857 97271
ONEWEB-0553             
1 56055U 23043K   25071.95636667  .00000018  00000+0  12589-4 0  9993
2 56055  87.9094 320.7158 0001407  75.8469 284.2818 13.16596570 98280
ONEWEB-0554             
1 56056U 23043L   25071.94371430  .00000007  00000+0 -14059-4 0  9990
2 56056  87.9100 320.7463 0002095  94.9961 265.1409 13.16595442 98260
